INTELSAT 21 (IS-21)     
1 38749U 12045A   26164.26652167 -.00000272  00000+0  00000+0 0  9997
2 38749   0.0129 300.3552 0001272 156.5692 202.6119  1.00271590 50482
INTELSAT 23 (IS-23)     
1 38867U 12057A   26164.26533189 -.00000272  00000+0  00000+0 0  9993
2 38867   0.0136 334.9892 0000131 222.9904 106.1003  1.00267508 49918
FM-6                    
1 39360U 13058A   26163.66945008 -.00000001  00000+0  00000+0 0  9994
2 39360   0.0129  86.3356 0001068  72.7874 226.5518  1.00266307 46022
INTELSAT 30 (IS-30)     
1 40271U 14062A   26163.95890970 -.00000137  00000+0  00000+0 0  9992
2 40271   0.0286  52.1946 0001262 328.6527 130.5879  1.00271249  6750
DIRECTV 14              
1 40333U 14078B   26163.67291676 -.00000111  00000+0  00000+0 0  9997
2 40333   0.0108 350.2373 0000328 291.3182 122.4591  1.00270237 41995
DIRECTV 15              
1 40663U 15026A   26163.88604062 -.00000089  00000+0  00000+0 0  9991
2 40663   0.0123  37.3401 0000225 250.5251 189.4417  1.00269400 40420
SKY MEXICO-1            
1 40664U 15026B   26164.22792733 -.00000222  00000+0  00000+0 0  9993
2 40664   0.0012   4.8049 0001943  98.9125 161.0886  1.00271156 40413
INTELSAT 34 (IS-34)     
1 40874U 15039A   26163.42966237 -.00000270  00000+0  00000+0 0  9996
2 40874   0.0091 331.6364 0001034 165.7888 222.5376  1.00298643 39587
INTELSAT 31 (IS-31)     
1 41581U 16035A   26163.95890970 -.00000137  00000+0  00000+0 0  9999
2 41581   0.0161 270.7584 0001142 330.9382 269.7462  1.00271005 36649
INTELSAT 36 (IS-36)     
1 41747U 16053A   26163.84872446 -.00000011  00000+0  00000+0 0  9990
2 41747   0.0121   6.0349 0001851 322.7940 306.3777  1.00271681 35910
INTELSAT 32E (IS-32E)   
1 41945U 17007B   26163.39109420 -.00000253  00000+0  00000+0 0  9993
2 41945   0.0171 333.1752 0000438 350.3516  34.8174  1.00277242 34173
INTELSAT 35E (IS-35E)   
1 42818U 17041A   26164.25606506 -.00000226  00000+0  00000+0 0  9994
2 42818   0.0137 332.8446 0001543 104.9975 241.4339  1.00269859 32779
INTELSAT 37E (IS-37E)   
1 42950U 17059A   26164.25927174 -.00000128  00000+0  00000+0 0  9998
2 42950   0.0156  52.7171 0002355  47.5153 236.6924  1.00272737 32025
AZERSPACE 2 (IS-38)     
1 43632U 18074A   26164.12919064  .00000149  00000+0  00000+0 0  9991
2 43632   0.0170 333.3048 0001192 109.7058 270.0615  1.00270324 28409
HORIZONS-3E             
1 43633U 18074B   26163.65471667 -.00000016  00000+0  00000+0 0  9995
2 43633   0.0178 157.8614 0000984 110.9858  36.8289  1.00270463 28292
AT&T T-16               
1 44333U 19034A   26163.95778303 -.00000102  00000+0  00000+0 0  9996
2 44333   0.0211  60.1740 0000804 231.2393 213.8157  1.00270606 25596
INTELSAT 39 (IS-39)     
1 44476U 19049B   26164.06130043  .00000047  00000+0  00000+0 0  9993
2 44476   0.0019 348.4556 0000883 321.2377  35.7078  1.00270383 25085
GALAXY 30 (G-30)        
1 46114U 20056C   26164.26332130  .00000000  00000+0  00000+0 0  9996
2 46114   0.0263   4.2630 0002076  85.2436 141.8652  1.00270054 21253
GALAXY 33 (G-33)        
1 54026U 22128A   26164.26887023  .00000091  00000+0  00000+0 0  9995
2 54026   0.0101 324.9138 0001625 120.6406 139.8325  1.00270679 13708
GALAXY 34 (G-34)        
1 54027U 22128B   26163.95197634  .00000072  00000+0  00000+0 0  9992
2 54027   0.0151  10.9191 0001425  95.2882   8.7862  1.00272983 13876
GALAXY 31 (G-31)        
1 54243U 22153A   26164.26035431  .00000000  00000+0  00000+0 0  9992
2 54243   0.0184 359.4063 0000974  77.8444 157.0443  1.00269991  7094
GALAXY 32 (G-32)        
1 54244U 22153B   26163.46063806 -.00000159  00000+0  00000+0 0  9997
2 54244   0.0112  15.0853 0002028  18.1712 302.3687  1.00271325 13092
GALAXY 35 (G-35)        
1 54741U 22170A   26164.24445395 -.00000150  00000+0  00000+0 0  9993
2 54741   0.0023 246.3782 0001796 198.3388 171.7482  1.00270405 12858
GALAXY 36 (G-36)        
1 54742U 22170B   26164.24523395 -.00000173  00000+0  00000+0 0  9996
2 54742   0.0402 126.0104 0002506 316.4756 178.3688  1.00271339 12739
GALAXY 37 (G-37)        
1 57493U 23112A   26164.26364411  .00000061  00000+0  00000+0 0  9998
2 57493   0.0159  43.6214 0001752  35.5311 150.3402  1.00270787 10501
